ONEWEB-0385             
1 49311U 21090AJ  21357.58334491 -.00025639  00000+0 -26128-2 0  9992
2 49311  87.1973 268.6573 0010956  10.5260 324.3182 14.90916247 11881
ONEWEB-0386             
1 49312U 21090AK  21357.25001157  .00015626  00000+0  15764-2 0  9994
2 49312  87.2057 268.8526 0007729  33.9501 218.4836 14.90992325 11810
ONEWEB-0387             
1 49313U 21090AL  21357.58334491  .00050426  00000+0  50703-2 0  9990
2 49313  87.2058 268.7269 0011437  35.9230  73.0255 14.90947646 11868
ONEWEB-0388             
1 49314U 21090AM  21357.25001157 -.01050053  00000+0 -70854+0 0  9990
2 49314  87.5945 271.5234 0009960  55.7185 212.6732 14.03920278 11618
